{"type":"FeatureCollection","features":[
{"type":"Feature","properties":{"id":"P-E06","productor":"PR-E0001","area_ha":2.65},"geometry":{"type":"MultiPolygon","coordinates":[[[[-88.180839,14.436088],[-88.181142,14.436521],[-88.181443,14.436632],[-88.181803,14.436442],[-88.182184,14.435875],[-88.182003,14.435641],[-88.181606,14.435343],[-88.180974,14.435565],[-88.180839,14.436088]]],[[[-88.180893,14.454134],[-88.181184,14.454703],[-88.181558,14.454892],[-88.181891,14.454802],[-88.182174,14.454358],[-88.181896,14.453821],[-88.181427,14.453625],[-88.181174,14.453689],[-88.180893,14.454134]]]]}}
]}
