{"type":"FeatureCollection","features":[
{"type":"Feature","properties":{"id":"P-E07A","productor":"PR-E0001","area_ha":1.96},"geometry":{"type":"Polygon","coordinates":[[[-88.177213,14.436433],[-88.177187,14.436832],[-88.177951,14.437120],[-88.178447,14.436946],[-88.178619,14.436346],[-88.178525,14.435898],[-88.177879,14.435649],[-88.177333,14.435764],[-88.177213,14.436433]]]}},
{"type":"Feature","properties":{"id":"P-E07B","productor":"PR-E0001","area_ha":2},"geometry":{"type":"Polygon","coordinates":[[[-88.176625,14.436416],[-88.176700,14.436994],[-88.177031,14.437056],[-88.177423,14.437190],[-88.177887,14.436992],[-88.178000,14.436329],[-88.177925,14.436022],[-88.177503,14.435645],[-88.176981,14.435696],[-88.176640,14.436101],[-88.176625,14.436416]]]}}
]}
