{"type":"FeatureCollection","features":[
{"type":"Feature","properties":{"id":"P-E13A","productor":"PR-E0001","area_ha":1.96},"geometry":{"type":"Polygon","coordinates":[[[-88.169920,14.435875],[-88.169996,14.436456],[-88.170452,14.436680],[-88.170846,14.436538],[-88.171236,14.436220],[-88.171403,14.435914],[-88.171242,14.435510],[-88.170836,14.435335],[-88.170391,14.435127],[-88.169926,14.435395],[-88.169920,14.435875]]]}},
{"type":"Feature","properties":{"id":"P-E13B","productor":"PR-E0001","area_ha":1.96},"geometry":{"type":"Polygon","coordinates":[[[-88.169920,14.435875],[-88.169996,14.436456],[-88.170452,14.436680],[-88.170846,14.436538],[-88.171236,14.436220],[-88.171403,14.435914],[-88.171242,14.435510],[-88.170836,14.435335],[-88.170391,14.435127],[-88.169926,14.435395],[-88.169920,14.435875]]]}}
]}
