<?xml version="1.0" encoding="UTF-8"?>
<kml xmlns="http://www.opengis.net/kml/2.2"><Document>
<name>Parcelas de Deslinde</name>
<Placemark><name>P-00001</name><ExtendedData><Data name="id"><value>P-00001</value></Data><Data name="productor"><value>PR-00001</value></Data><Data name="area_ha"><value>1.89</value></Data></ExtendedData><Polygon><outerBoundaryIs><LinearRing><coordinates>-88.199063,14.400094,0 -88.199222,14.400560,0 -88.199728,14.400901,0 -88.200249,14.400875,0 -88.200637,14.400321,0 -88.200502,14.399880,0 -88.200165,14.399440,0 -88.199835,14.399482,0 -88.199327,14.399827,0 -88.199063,14.400094,0</coordinates></LinearRing></outerBoundaryIs></Polygon></Placemark>
<Placemark><name>P-00002</name><ExtendedData><Data name="id"><value>P-00002</value></Data><Data name="productor"><value>PR-00001</value></Data><Data name="area_ha"><value>3.27</value></Data></ExtendedData><Polygon><outerBoundaryIs><LinearRing><coordinates>-88.195153,14.400065,0 -88.195754,14.400737,0 -88.196322,14.401043,0 -88.197026,14.400458,0 -88.197207,14.399608,0 -88.196493,14.399017,0 -88.195636,14.399179,0 -88.195153,14.400065,0</coordinates></LinearRing></outerBoundaryIs></Polygon></Placemark>
<Placemark><name>P-00003</name><ExtendedData><Data name="id"><value>P-00003</value></Data><Data name="productor"><value>PR-00002</value></Data><Data name="area_ha"><value>4.79</value></Data></ExtendedData><Polygon><outerBoundaryIs><LinearRing><coordinates>-88.191594,14.400123,0 -88.192134,14.400693,0 -88.192782,14.401182,0 -88.193451,14.400742,0 -88.194069,14.400097,0 -88.194040,14.399581,0 -88.193625,14.398919,0 -88.192438,14.398946,0 -88.191824,14.399111,0 -88.191594,14.400123,0</coordinates></LinearRing></outerBoundaryIs></Polygon></Placemark>
<Placemark><name>P-00004</name><ExtendedData><Data name="id"><value>P-00004</value></Data><Data name="productor"><value>PR-00002</value></Data><Data name="area_ha"><value>3.59</value></Data></ExtendedData><Polygon><outerBoundaryIs><LinearRing><coordinates>-88.187617,14.400409,0 -88.187944,14.400783,0 -88.188290,14.401009,0 -88.188836,14.401126,0 -88.189517,14.400831,0 -88.189683,14.400064,0 -88.189429,14.399623,0 -88.188951,14.399218,0 -88.188478,14.399152,0 -88.187769,14.399546,0 -88.187617,14.400409,0</coordinates></LinearRing></outerBoundaryIs></Polygon></Placemark>
<Placemark><name>P-00005</name><ExtendedData><Data name="id"><value>P-00005</value></Data><Data name="productor"><value>PR-00003</value></Data><Data name="area_ha"><value>2.5</value></Data></ExtendedData><Point><coordinates>-88.185180,14.400185,0</coordinates></Point></Placemark>
<Placemark><name>P-00006</name><ExtendedData><Data name="id"><value>P-00006</value></Data><Data name="productor"><value>PR-00003</value></Data><Data name="area_ha"><value>0.89</value></Data></ExtendedData><Polygon><outerBoundaryIs><LinearRing><coordinates>-88.199708,14.403351,0 -88.199829,14.403654,0 -88.200011,14.403817,0 -88.200421,14.403873,0 -88.200533,14.403691,0 -88.200751,14.403425,0 -88.200709,14.403123,0 -88.200418,14.402987,0 -88.199947,14.402904,0 -88.199766,14.403049,0 -88.199708,14.403351,0</coordinates></LinearRing></outerBoundaryIs></Polygon></Placemark>
<Placemark><name>P-00007</name><ExtendedData><Data name="id"><value>P-00007</value></Data><Data name="productor"><value>PR-00004</value></Data><Data name="area_ha"><value>0.67</value></Data></ExtendedData><Polygon><outerBoundaryIs><LinearRing><coordinates>-88.195598,14.403909,0 -88.195734,14.404146,0 -88.196248,14.404239,0 -88.196556,14.404031,0 -88.196479,14.403607,0 -88.196307,14.403419,0 -88.195841,14.403528,0 -88.195598,14.403909,0</coordinates></LinearRing></outerBoundaryIs></Polygon></Placemark>
<Placemark><name>P-00008</name><ExtendedData><Data name="id"><value>P-00008</value></Data><Data name="productor"><value>PR-00004</value></Data><Data name="area_ha"><value>3.46</value></Data></ExtendedData><Point><coordinates>-88.192826,14.403721,0</coordinates></Point></Placemark>
<Placemark><name>P-00009</name><ExtendedData><Data name="id"><value>P-00009</value></Data><Data name="productor"><value>PR-00005</value></Data><Data name="area_ha"><value>0.63</value></Data></ExtendedData><Polygon><outerBoundaryIs><LinearRing><coordinates>-88.188585,14.403549,0 -88.188797,14.404025,0 -88.189345,14.403924,0 -88.189447,14.403574,0 -88.189386,14.403262,0 -88.188885,14.403186,0 -88.188585,14.403549,0</coordinates></LinearRing></outerBoundaryIs></Polygon></Placemark>
<Placemark><name>P-00010</name><ExtendedData><Data name="id"><value>P-00010</value></Data><Data name="productor"><value>PR-00005</value></Data><Data name="area_ha"><value>2.65</value></Data></ExtendedData><Point><coordinates>-88.185058,14.403795,0</coordinates></Point></Placemark>
<Placemark><name>P-E01</name><ExtendedData><Data name="id"><value>P-E01</value></Data><Data name="productor"><value>PR-E0001</value></Data><Data name="area_ha"><value>2</value></Data></ExtendedData><Polygon><outerBoundaryIs><LinearRing><coordinates>-88.200447,14.435631,0 -88.199148,14.436897,0 -88.199148,14.435631,0 -88.200447,14.436897,0 -88.200447,14.435631,0</coordinates></LinearRing></outerBoundaryIs></Polygon></Placemark>
<Placemark><name>P-E02</name><ExtendedData><Data name="id"><value>P-E02</value></Data><Data name="productor"><value>PR-E0001</value></Data><Data name="area_ha"><value>1.55</value></Data></ExtendedData><Polygon><outerBoundaryIs><LinearRing><coordinates>-88.195280,14.436382,0 -88.195669,14.436902,0 -88.196214,14.436985,0 -88.196761,14.436177,0 -88.196232,14.435693,0 -88.195604,14.435706,0</coordinates></LinearRing></outerBoundaryIs></Polygon></Placemark>
<Placemark><name>P-E03</name><ExtendedData><Data name="id"><value>P-E03</value></Data><Data name="productor"><value>PR-E0001</value></Data><Data name="area_ha"><value>1.66</value></Data></ExtendedData><Polygon><outerBoundaryIs><LinearRing><coordinates>-88.19186,14.43648,0 -88.19202,14.43697,0 -88.19282,14.43710,0 -88.19321,14.43623,0 -88.19317,14.43578,0 -88.19227,14.43573,0 -88.19186,14.43648,0</coordinates></LinearRing></outerBoundaryIs></Polygon></Placemark>
<Placemark><name>P-E04</name><ExtendedData><Data name="id"><value>P-E04</value></Data><Data name="productor"><value>PR-E0001</value></Data><Data name="area_ha"><value>1.88</value></Data></ExtendedData><Polygon><outerBoundaryIs><LinearRing><coordinates>14.436150,-88.187888,0 14.436837,-88.188225,0 14.436870,-88.188566,0 14.436792,-88.189138,0 14.436180,-88.189338,0 14.435721,-88.189333,0 14.435455,-88.188860,0 14.435705,-88.188078,0 14.436150,-88.187888,0</coordinates></LinearRing></outerBoundaryIs></Polygon></Placemark>
<Placemark><name>P-E05</name><ExtendedData><Data name="id"><value>P-E05</value></Data><Data name="productor"><value>PR-E0001</value></Data><Data name="area_ha"><value>6.5</value></Data></ExtendedData><Point><coordinates>-88.185136,14.436375,0</coordinates></Point></Placemark>
<Placemark><name>P-E06</name><ExtendedData><Data name="id"><value>P-E06</value></Data><Data name="productor"><value>PR-E0001</value></Data><Data name="area_ha"><value>2.65</value></Data></ExtendedData><MultiGeometry><Polygon><outerBoundaryIs><LinearRing><coordinates>-88.180839,14.436088,0 -88.181142,14.436521,0 -88.181443,14.436632,0 -88.181803,14.436442,0 -88.182184,14.435875,0 -88.182003,14.435641,0 -88.181606,14.435343,0 -88.180974,14.435565,0 -88.180839,14.436088,0</coordinates></LinearRing></outerBoundaryIs></Polygon><Polygon><outerBoundaryIs><LinearRing><coordinates>-88.180893,14.454134,0 -88.181184,14.454703,0 -88.181558,14.454892,0 -88.181891,14.454802,0 -88.182174,14.454358,0 -88.181896,14.453821,0 -88.181427,14.453625,0 -88.181174,14.453689,0 -88.180893,14.454134,0</coordinates></LinearRing></outerBoundaryIs></Polygon></MultiGeometry></Placemark>
<Placemark><name>P-E07A</name><ExtendedData><Data name="id"><value>P-E07A</value></Data><Data name="productor"><value>PR-E0001</value></Data><Data name="area_ha"><value>1.96</value></Data></ExtendedData><Polygon><outerBoundaryIs><LinearRing><coordinates>-88.177213,14.436433,0 -88.177187,14.436832,0 -88.177951,14.437120,0 -88.178447,14.436946,0 -88.178619,14.436346,0 -88.178525,14.435898,0 -88.177879,14.435649,0 -88.177333,14.435764,0 -88.177213,14.436433,0</coordinates></LinearRing></outerBoundaryIs></Polygon></Placemark>
<Placemark><name>P-E07B</name><ExtendedData><Data name="id"><value>P-E07B</value></Data><Data name="productor"><value>PR-E0001</value></Data><Data name="area_ha"><value>2</value></Data></ExtendedData><Polygon><outerBoundaryIs><LinearRing><coordinates>-88.176625,14.436416,0 -88.176700,14.436994,0 -88.177031,14.437056,0 -88.177423,14.437190,0 -88.177887,14.436992,0 -88.178000,14.436329,0 -88.177925,14.436022,0 -88.177503,14.435645,0 -88.176981,14.435696,0 -88.176640,14.436101,0 -88.176625,14.436416,0</coordinates></LinearRing></outerBoundaryIs></Polygon></Placemark>
<Placemark><name>P-E08</name><ExtendedData><Data name="id"><value>P-E08</value></Data><Data name="productor"><value>PR-E0001</value></Data><Data name="area_ha"><value>1.5</value></Data></ExtendedData><Point><coordinates>-84.000000,10.000000,0</coordinates></Point></Placemark>
<Placemark><name>P-E11</name><ExtendedData><Data name="id"><value>P-E11</value></Data><Data name="productor"><value>PR-E0001</value></Data><Data name="area_ha"><value>2</value></Data></ExtendedData><Polygon><outerBoundaryIs><LinearRing><coordinates>403088.39,1614004.53,0 403026.05,1614078.18,0 402973.28,1614063.14,0 402913.17,1614027.42,0 402962.82,1613937.75,0 403040.30,1613923.81,0 403088.39,1614004.53,0</coordinates></LinearRing></outerBoundaryIs></Polygon></Placemark>
<Placemark><name>P-E12</name><ExtendedData><Data name="id"><value>P-E12</value></Data><Data name="productor"><value>PR-E0001</value></Data><Data name="area_ha"><value>1.55</value></Data></ExtendedData><Polygon><outerBoundaryIs><LinearRing><coordinates>-88.173321,14.436362,0 -88.173746,14.437040,0 -88.174318,14.436943,0 -88.174318,14.436943,0 -88.174719,14.436468,0 -88.174428,14.435766,0 -88.173864,14.435614,0 -88.173321,14.436362,0</coordinates></LinearRing></outerBoundaryIs></Polygon></Placemark>
<Placemark><name>P-E13A</name><ExtendedData><Data name="id"><value>P-E13A</value></Data><Data name="productor"><value>PR-E0001</value></Data><Data name="area_ha"><value>1.96</value></Data></ExtendedData><Polygon><outerBoundaryIs><LinearRing><coordinates>-88.169920,14.435875,0 -88.169996,14.436456,0 -88.170452,14.436680,0 -88.170846,14.436538,0 -88.171236,14.436220,0 -88.171403,14.435914,0 -88.171242,14.435510,0 -88.170836,14.435335,0 -88.170391,14.435127,0 -88.169926,14.435395,0 -88.169920,14.435875,0</coordinates></LinearRing></outerBoundaryIs></Polygon></Placemark>
<Placemark><name>P-E13B</name><ExtendedData><Data name="id"><value>P-E13B</value></Data><Data name="productor"><value>PR-E0001</value></Data><Data name="area_ha"><value>1.96</value></Data></ExtendedData><Polygon><outerBoundaryIs><LinearRing><coordinates>-88.169920,14.435875,0 -88.169996,14.436456,0 -88.170452,14.436680,0 -88.170846,14.436538,0 -88.171236,14.436220,0 -88.171403,14.435914,0 -88.171242,14.435510,0 -88.170836,14.435335,0 -88.170391,14.435127,0 -88.169926,14.435395,0 -88.169920,14.435875,0</coordinates></LinearRing></outerBoundaryIs></Polygon></Placemark>
<Placemark><name>P-E14</name><ExtendedData><Data name="id"><value>P-E14</value></Data><Data name="productor"><value>PR-E0001</value></Data><Data name="area_ha"><value>5</value></Data></ExtendedData><Polygon><outerBoundaryIs><LinearRing><coordinates>-88.165973,14.436376,0 -88.166211,14.436754,0 -88.166853,14.437011,0 -88.167215,14.436825,0 -88.167377,14.436280,0 -88.167359,14.435901,0 -88.166768,14.435684,0 -88.166169,14.435789,0 -88.165973,14.436376,0</coordinates></LinearRing></outerBoundaryIs></Polygon></Placemark>
</Document></kml>
