{"type":"FeatureCollection","features":[
{"type":"Feature","properties":{"id":"P-00001","productor":"PR-00001","area_ha":1.89},"geometry":{"type":"Polygon","coordinates":[[[-88.199063,14.400094],[-88.199222,14.400560],[-88.199728,14.400901],[-88.200249,14.400875],[-88.200637,14.400321],[-88.200502,14.399880],[-88.200165,14.399440],[-88.199835,14.399482],[-88.199327,14.399827],[-88.199063,14.400094]]]}},
{"type":"Feature","properties":{"id":"P-00002","productor":"PR-00001","area_ha":3.27},"geometry":{"type":"Polygon","coordinates":[[[-88.195153,14.400065],[-88.195754,14.400737],[-88.196322,14.401043],[-88.197026,14.400458],[-88.197207,14.399608],[-88.196493,14.399017],[-88.195636,14.399179],[-88.195153,14.400065]]]}},
{"type":"Feature","properties":{"id":"P-00003","productor":"PR-00002","area_ha":4.79},"geometry":{"type":"Polygon","coordinates":[[[-88.191594,14.400123],[-88.192134,14.400693],[-88.192782,14.401182],[-88.193451,14.400742],[-88.194069,14.400097],[-88.194040,14.399581],[-88.193625,14.398919],[-88.192438,14.398946],[-88.191824,14.399111],[-88.191594,14.400123]]]}},
{"type":"Feature","properties":{"id":"P-00004","productor":"PR-00002","area_ha":3.59},"geometry":{"type":"Polygon","coordinates":[[[-88.187617,14.400409],[-88.187944,14.400783],[-88.188290,14.401009],[-88.188836,14.401126],[-88.189517,14.400831],[-88.189683,14.400064],[-88.189429,14.399623],[-88.188951,14.399218],[-88.188478,14.399152],[-88.187769,14.399546],[-88.187617,14.400409]]]}},
{"type":"Feature","properties":{"id":"P-00005","productor":"PR-00003","area_ha":2.5},"geometry":{"type":"Point","coordinates":[-88.185180,14.400185]}},
{"type":"Feature","properties":{"id":"P-00006","productor":"PR-00003","area_ha":0.89},"geometry":{"type":"Polygon","coordinates":[[[-88.199708,14.403351],[-88.199829,14.403654],[-88.200011,14.403817],[-88.200421,14.403873],[-88.200533,14.403691],[-88.200751,14.403425],[-88.200709,14.403123],[-88.200418,14.402987],[-88.199947,14.402904],[-88.199766,14.403049],[-88.199708,14.403351]]]}},
{"type":"Feature","properties":{"id":"P-00007","productor":"PR-00004","area_ha":0.67},"geometry":{"type":"Polygon","coordinates":[[[-88.195598,14.403909],[-88.195734,14.404146],[-88.196248,14.404239],[-88.196556,14.404031],[-88.196479,14.403607],[-88.196307,14.403419],[-88.195841,14.403528],[-88.195598,14.403909]]]}},
{"type":"Feature","properties":{"id":"P-00008","productor":"PR-00004","area_ha":3.46},"geometry":{"type":"Point","coordinates":[-88.192826,14.403721]}},
{"type":"Feature","properties":{"id":"P-00009","productor":"PR-00005","area_ha":0.63},"geometry":{"type":"Polygon","coordinates":[[[-88.188585,14.403549],[-88.188797,14.404025],[-88.189345,14.403924],[-88.189447,14.403574],[-88.189386,14.403262],[-88.188885,14.403186],[-88.188585,14.403549]]]}},
{"type":"Feature","properties":{"id":"P-00010","productor":"PR-00005","area_ha":2.65},"geometry":{"type":"Point","coordinates":[-88.185058,14.403795]}},
{"type":"Feature","properties":{"id":"P-E01","productor":"PR-E0001","area_ha":2},"geometry":{"type":"Polygon","coordinates":[[[-88.200447,14.435631],[-88.199148,14.436897],[-88.199148,14.435631],[-88.200447,14.436897],[-88.200447,14.435631]]]}},
{"type":"Feature","properties":{"id":"P-E02","productor":"PR-E0001","area_ha":1.55},"geometry":{"type":"Polygon","coordinates":[[[-88.195280,14.436382],[-88.195669,14.436902],[-88.196214,14.436985],[-88.196761,14.436177],[-88.196232,14.435693],[-88.195604,14.435706]]]}},
{"type":"Feature","properties":{"id":"P-E03","productor":"PR-E0001","area_ha":1.66},"geometry":{"type":"Polygon","coordinates":[[[-88.19186,14.43648],[-88.19202,14.43697],[-88.19282,14.43710],[-88.19321,14.43623],[-88.19317,14.43578],[-88.19227,14.43573],[-88.19186,14.43648]]]}},
{"type":"Feature","properties":{"id":"P-E04","productor":"PR-E0001","area_ha":1.88},"geometry":{"type":"Polygon","coordinates":[[[14.436150,-88.187888],[14.436837,-88.188225],[14.436870,-88.188566],[14.436792,-88.189138],[14.436180,-88.189338],[14.435721,-88.189333],[14.435455,-88.188860],[14.435705,-88.188078],[14.436150,-88.187888]]]}},
{"type":"Feature","properties":{"id":"P-E05","productor":"PR-E0001","area_ha":6.5},"geometry":{"type":"Point","coordinates":[-88.185136,14.436375]}},
{"type":"Feature","properties":{"id":"P-E06","productor":"PR-E0001","area_ha":2.65},"geometry":{"type":"MultiPolygon","coordinates":[[[[-88.180839,14.436088],[-88.181142,14.436521],[-88.181443,14.436632],[-88.181803,14.436442],[-88.182184,14.435875],[-88.182003,14.435641],[-88.181606,14.435343],[-88.180974,14.435565],[-88.180839,14.436088]]],[[[-88.180893,14.454134],[-88.181184,14.454703],[-88.181558,14.454892],[-88.181891,14.454802],[-88.182174,14.454358],[-88.181896,14.453821],[-88.181427,14.453625],[-88.181174,14.453689],[-88.180893,14.454134]]]]}},
{"type":"Feature","properties":{"id":"P-E07A","productor":"PR-E0001","area_ha":1.96},"geometry":{"type":"Polygon","coordinates":[[[-88.177213,14.436433],[-88.177187,14.436832],[-88.177951,14.437120],[-88.178447,14.436946],[-88.178619,14.436346],[-88.178525,14.435898],[-88.177879,14.435649],[-88.177333,14.435764],[-88.177213,14.436433]]]}},
{"type":"Feature","properties":{"id":"P-E07B","productor":"PR-E0001","area_ha":2},"geometry":{"type":"Polygon","coordinates":[[[-88.176625,14.436416],[-88.176700,14.436994],[-88.177031,14.437056],[-88.177423,14.437190],[-88.177887,14.436992],[-88.178000,14.436329],[-88.177925,14.436022],[-88.177503,14.435645],[-88.176981,14.435696],[-88.176640,14.436101],[-88.176625,14.436416]]]}},
{"type":"Feature","properties":{"id":"P-E08","productor":"PR-E0001","area_ha":1.5},"geometry":{"type":"Point","coordinates":[-84.000000,10.000000]}},
{"type":"Feature","properties":{"id":"P-E11","productor":"PR-E0001","area_ha":2},"geometry":{"type":"Polygon","coordinates":[[[403088.39,1614004.53],[403026.05,1614078.18],[402973.28,1614063.14],[402913.17,1614027.42],[402962.82,1613937.75],[403040.30,1613923.81],[403088.39,1614004.53]]]}},
{"type":"Feature","properties":{"id":"P-E12","productor":"PR-E0001","area_ha":1.55},"geometry":{"type":"Polygon","coordinates":[[[-88.173321,14.436362],[-88.173746,14.437040],[-88.174318,14.436943],[-88.174318,14.436943],[-88.174719,14.436468],[-88.174428,14.435766],[-88.173864,14.435614],[-88.173321,14.436362]]]}},
{"type":"Feature","properties":{"id":"P-E13A","productor":"PR-E0001","area_ha":1.96},"geometry":{"type":"Polygon","coordinates":[[[-88.169920,14.435875],[-88.169996,14.436456],[-88.170452,14.436680],[-88.170846,14.436538],[-88.171236,14.436220],[-88.171403,14.435914],[-88.171242,14.435510],[-88.170836,14.435335],[-88.170391,14.435127],[-88.169926,14.435395],[-88.169920,14.435875]]]}},
{"type":"Feature","properties":{"id":"P-E13B","productor":"PR-E0001","area_ha":1.96},"geometry":{"type":"Polygon","coordinates":[[[-88.169920,14.435875],[-88.169996,14.436456],[-88.170452,14.436680],[-88.170846,14.436538],[-88.171236,14.436220],[-88.171403,14.435914],[-88.171242,14.435510],[-88.170836,14.435335],[-88.170391,14.435127],[-88.169926,14.435395],[-88.169920,14.435875]]]}},
{"type":"Feature","properties":{"id":"P-E14","productor":"PR-E0001","area_ha":5},"geometry":{"type":"Polygon","coordinates":[[[-88.165973,14.436376],[-88.166211,14.436754],[-88.166853,14.437011],[-88.167215,14.436825],[-88.167377,14.436280],[-88.167359,14.435901],[-88.166768,14.435684],[-88.166169,14.435789],[-88.165973,14.436376]]]}}
]}
