<?xml version="1.0" encoding="UTF-8"?>
<kml xmlns="http://www.opengis.net/kml/2.2"><Document>
<name>Parcelas del beneficio</name>
<Placemark><name>HN-0201</name><ExtendedData><Data name="id"><value>HN-0201</value></Data><Data name="productor"><value>PR-S-00001</value></Data><Data name="area_ha"><value>1.48</value></Data></ExtendedData><Polygon><outerBoundaryIs><LinearRing><coordinates>-88.199459,14.476215,0 -88.199447,14.476434,0 -88.199753,14.476765,0 -88.200423,14.476807,0 -88.200525,14.476553,0 -88.200754,14.476021,0 -88.200492,14.475758,0 -88.200188,14.475588,0 -88.199976,14.475552,0 -88.199478,14.475759,0 -88.199459,14.476215,0</coordinates></LinearRing></outerBoundaryIs></Polygon></Placemark>
<Placemark><name>HN-0202</name><ExtendedData><Data name="id"><value>HN-0202</value></Data><Data name="productor"><value>PR-S-00002</value></Data><Data name="area_ha"><value>0.97</value></Data></ExtendedData><Polygon><outerBoundaryIs><LinearRing><coordinates>-88.196006,14.475834,0 -88.196370,14.476499,0 -88.196658,14.476467,0 -88.197190,14.475833,0 -88.196797,14.475482,0 -88.196271,14.475402,0 -88.196006,14.475834,0</coordinates></LinearRing></outerBoundaryIs></Polygon></Placemark>
<Placemark><name>HN-0203</name><ExtendedData><Data name="id"><value>HN-0203</value></Data><Data name="productor"><value>PR-S-00003</value></Data><Data name="area_ha"><value>2.18</value></Data></ExtendedData><Polygon><outerBoundaryIs><LinearRing><coordinates>-88.191928,14.476296,0 -88.192496,14.476967,0 -88.193287,14.476699,0 -88.193691,14.476252,0 -88.193136,14.475490,0 -88.192030,14.475551,0 -88.191928,14.476296,0</coordinates></LinearRing></outerBoundaryIs></Polygon></Placemark>
<Placemark><name>HN-0204</name><ExtendedData><Data name="id"><value>HN-0204</value></Data><Data name="productor"><value>PR-S-00004</value></Data><Data name="area_ha"><value>1.82</value></Data></ExtendedData><Polygon><outerBoundaryIs><LinearRing><coordinates>-88.188285,14.475737,0 -88.188430,14.476236,0 -88.189254,14.476524,0 -88.189703,14.475760,0 -88.189437,14.475138,0 -88.188756,14.474885,0 -88.188285,14.475737,0</coordinates></LinearRing></outerBoundaryIs></Polygon></Placemark>
<Placemark><name>HN-0205</name><ExtendedData><Data name="id"><value>HN-0205</value></Data><Data name="productor"><value>PR-S-00005</value></Data><Data name="area_ha"><value>3.82</value></Data></ExtendedData><Polygon><outerBoundaryIs><LinearRing><coordinates>-88.183883,14.476043,0 -88.184038,14.476619,0 -88.184653,14.476987,0 -88.185381,14.476996,0 -88.185855,14.476530,0 -88.186144,14.475793,0 -88.185597,14.475253,0 -88.185003,14.475025,0 -88.184276,14.475290,0 -88.183883,14.476043,0</coordinates></LinearRing></outerBoundaryIs></Polygon></Placemark>
<Placemark><name>HN-0206</name><ExtendedData><Data name="id"><value>HN-0206</value></Data><Data name="productor"><value>PR-S-00006</value></Data><Data name="area_ha"><value>2.94</value></Data></ExtendedData><Polygon><outerBoundaryIs><LinearRing><coordinates>-88.180715,14.475969,0 -88.180928,14.476966,0 -88.181964,14.477109,0 -88.182495,14.476430,0 -88.182588,14.475803,0 -88.181963,14.475372,0 -88.181212,14.475423,0 -88.180715,14.475969,0</coordinates></LinearRing></outerBoundaryIs></Polygon></Placemark>
<Placemark><name>HN-0103</name><ExtendedData><Data name="id"><value>HN-0103</value></Data><Data name="productor"><value>PR-N-00002</value></Data><Data name="area_ha"><value>1.6</value></Data></ExtendedData><Polygon><outerBoundaryIs><LinearRing><coordinates>-88.191939,14.472543,0 -88.192222,14.472885,0 -88.192782,14.473228,0 -88.193305,14.472961,0 -88.193450,14.472626,0 -88.193110,14.472052,0 -88.192675,14.471873,0 -88.192292,14.471930,0 -88.191939,14.472543,0</coordinates></LinearRing></outerBoundaryIs></Polygon></Placemark>
<Placemark><name>HN-0107</name><ExtendedData><Data name="id"><value>HN-0107</value></Data><Data name="productor"><value>PR-N-00004</value></Data><Data name="area_ha"><value>2.32</value></Data></ExtendedData><Polygon><outerBoundaryIs><LinearRing><coordinates>-88.176721,14.472497,0 -88.177033,14.473296,0 -88.177639,14.473417,0 -88.178408,14.472821,0 -88.178321,14.472125,0 -88.177803,14.471862,0 -88.176960,14.471966,0 -88.176721,14.472497,0</coordinates></LinearRing></outerBoundaryIs></Polygon></Placemark>
</Document></kml>
