{"type":"FeatureCollection","features":[
{"type":"Feature","properties":{"id":"HN-0101","productor":"PR-N-00001","area_ha":1.48},"geometry":{"type":"Polygon","coordinates":[[[-88.199526,14.472163],[-88.199664,14.472576],[-88.200164,14.472785],[-88.200882,14.472308],[-88.200711,14.471989],[-88.200288,14.471403],[-88.199665,14.471533],[-88.199526,14.472163]]]}},
{"type":"Feature","properties":{"id":"HN-0102","productor":"PR-N-00001","area_ha":3.06},"geometry":{"type":"Polygon","coordinates":[[[-88.195005,14.472306],[-88.195444,14.472921],[-88.195930,14.473236],[-88.196399,14.473191],[-88.196904,14.473133],[-88.196989,14.472315],[-88.196925,14.471826],[-88.196439,14.471629],[-88.195655,14.471466],[-88.195397,14.471823],[-88.195005,14.472306]]]}},
{"type":"Feature","properties":{"id":"HN-0103","productor":"PR-N-00002","area_ha":1.6},"geometry":{"type":"Polygon","coordinates":[[[-88.191939,14.472543],[-88.192222,14.472885],[-88.192782,14.473228],[-88.193305,14.472961],[-88.193450,14.472626],[-88.193110,14.472052],[-88.192675,14.471873],[-88.192292,14.471930],[-88.191939,14.472543]]]}},
{"type":"Feature","properties":{"id":"HN-0104","productor":"PR-N-00002","area_ha":1.07},"geometry":{"type":"Point","coordinates":[-88.189012,14.472217]}},
{"type":"Feature","properties":{"id":"HN-0105","productor":"PR-N-00003","area_ha":2.04},"geometry":{"type":"Polygon","coordinates":[[[-88.184470,14.472394],[-88.184691,14.472783],[-88.184991,14.472886],[-88.185639,14.473015],[-88.186034,14.472699],[-88.186119,14.472307],[-88.185889,14.471824],[-88.185692,14.471605],[-88.185196,14.471715],[-88.184659,14.471794],[-88.184470,14.472394]]]}},
{"type":"Feature","properties":{"id":"HN-0106","productor":"PR-N-00003","area_ha":3.76},"geometry":{"type":"Polygon","coordinates":[[[-88.180528,14.472820],[-88.180640,14.473209],[-88.181665,14.473550],[-88.182179,14.473532],[-88.182613,14.472623],[-88.182490,14.471967],[-88.181589,14.471503],[-88.180831,14.471832],[-88.180528,14.472820]]]}},
{"type":"Feature","properties":{"id":"HN-0107","productor":"PR-N-00004","area_ha":3.38},"geometry":{"type":"Polygon","coordinates":[[[-88.176610,14.472817],[-88.177041,14.473475],[-88.177944,14.473441],[-88.178457,14.473305],[-88.178700,14.472651],[-88.178419,14.471753],[-88.177649,14.471697],[-88.177025,14.472011],[-88.176610,14.472817]]]}},
{"type":"Feature","properties":{"id":"HN-0108","productor":"PR-N-00004","area_ha":1.85},"geometry":{"type":"Polygon","coordinates":[[[-88.173316,14.472381],[-88.173879,14.472998],[-88.174257,14.473110],[-88.174783,14.472758],[-88.174947,14.472024],[-88.174331,14.471695],[-88.173824,14.471727],[-88.173316,14.472381]]]}},
{"type":"Feature","properties":{"id":"HN-0109","productor":"PR-N-00005","area_ha":1.45},"geometry":{"type":"Point","coordinates":[-88.170291,14.472459]}},
{"type":"Feature","properties":{"id":"HN-0110","productor":"PR-N-00005","area_ha":1.47},"geometry":{"type":"Polygon","coordinates":[[[-88.165934,14.472048],[-88.166036,14.472498],[-88.166336,14.472703],[-88.166862,14.472682],[-88.167171,14.472490],[-88.167268,14.472117],[-88.167164,14.471873],[-88.166901,14.471426],[-88.166479,14.471523],[-88.166206,14.471732],[-88.165934,14.472048]]]}}
]}
